KUZGTU 1 (RS47S)        
1 57217U 23091AV  26187.84972007  .00009395  00000+0  32219-3 0  9993
2 57217  97.5050 252.5348 0010967  35.2176 324.9787 15.30340616167380
SONATE-2                
1 59112U 24043Q   26187.38872041  .00044047  00000+0  53835-3 0  9993
2 59112  97.5550 338.9857 0006988 133.3094 226.8746 15.60279237130885
MESAT1                  
1 60209U 24125G   26187.55313948  .00052815  00000+0  52387-3 0  9991
2 60209  97.2267  45.5044 0010927 139.4598 220.7478 15.65567605112596
OOV-CUBE (TUBSAT-30)    
1 60240U 24128F   26187.41788602  .00002062  00000+0  16592-3 0  9994
2 60240  61.9939 158.5121 0042205 138.0070 222.4270 15.02848993109004
COLIBRI-S (RS67S)       
1 61746U 24199M   26187.84068594  .00017760  00000+0  33401-3 0  9991
2 61746  97.2965  61.8815 0007899 192.4642 167.6415 15.48590036140459
HORS 3 (RS81S)          
1 61753U 24199U   26187.83706125  .00029993  00000+0  42446-3 0  9997
2 61753  97.2946  64.0850 0006009 183.1196 177.0022 15.56445260140617
HORS 4 (RS82S)          
1 61754U 24199V   26187.79938771  .00042777  00000+0  49520-3 0  9992
2 61754  97.2887  65.3817 0006012 173.2282 186.9058 15.61711379140700
SIT-2086                
1 61764U 24199AF  26187.83920762  .00029474  00000+0  44694-3 0  9995
2 61764  97.2904  64.4954 0007276 170.4447 189.6947 15.54552182137483
HYPERVIEW 1G (RS66S)    
1 61772U 24199AP  26187.83840838  .00171406  00000+0  81402-3 0  9990
2 61772  97.2818  68.6326 0007747 164.8083 195.3420 15.82426801137772
ALTAIR (RS65S)          
1 61779U 24199AW  26187.83596323  .00005953  00000+0  16431-3 0  9997
2 61779  97.3005  57.0591 0011210 229.0402 130.9873 15.37402326140130
ASRTU-1 (AO-123)        
1 61781U 24199AY  26187.77648916  .00006661  00000+0  19210-3 0  9994
2 61781  97.2975  56.2714 0012201 233.2832 126.7292 15.35969798136931
SAMSAT-IONOSPHERE (RS7*)
1 61784U 24199BB  26187.83528027  .00041624  00000+0  52384-3 0  9991
2 61784  97.2912  64.2060 0008168 188.6990 171.4127 15.59506365140621
RTU MIREA 1 (RS51S)     
1 61785U 24199BC  26187.81337693  .00051921  00000+0  56032-3 0  9992
2 61785  97.2896  65.1229 0008295 182.1964 177.9259 15.63462569137536
TEVEL2-4                
1 63213U 25052D   26187.67428712  .00016695  00000+0  48799-3 0  9996
2 63213  97.3871  84.1040 0004261  67.0720 293.0973 15.35349022 73102
TEVEL2-5                
1 63214U 25052E   26187.69703529  .00015464  00000+0  45489-3 0  9997
2 63214  97.3872  84.0695 0004265  69.4211 290.7489 15.35166336 73105
TEVEL2-6                
1 63215U 25052F   26187.64462731  .00015882  00000+0  46765-3 0  9992
2 63215  97.3876  84.0017 0004117  72.7318 287.4375 15.35129767 73091
TEVEL2-1                
1 63217U 25052H   26187.68057351  .00015226  00000+0  45647-3 0  9996
2 63217  97.3844  83.6383 0004748  76.8203 283.3570 15.34567986 73086
TEVEL2-3                
1 63218U 25052J   26187.67447642  .00015487  00000+0  46335-3 0  9996
2 63218  97.3853  83.6568 0004527  78.0894 282.0856 15.34629270 73085
TEVEL2-2                
1 63219U 25052K   26187.68076006  .00015433  00000+0  46246-3 0  9992
2 63219  97.3845  83.6413 0004786  77.4711 282.7067 15.34579587 73080
OTP-2                   
1 63235U 25052AB  26187.66072382  .00006073  00000+0  25147-3 0  9998
2 63235  97.3841  79.8004 0008292  93.9891 266.2295 15.24261025 72831
TEVEL2-9                
1 63237U 25052AD  26187.68368610  .00013872  00000+0  44317-3 0  9999
2 63237  97.3912  82.9767 0008199  80.0094 280.2072 15.32543225 73015
TEVEL2-7                
1 63238U 25052AE  26187.66312631  .00014189  00000+0  45764-3 0  9999
2 63238  97.3912  82.8636 0008261  80.2460 279.9714 15.32230916 73006
TEVEL2-8                
1 63239U 25052AF  26187.67156630  .00014404  00000+0  46474-3 0  9995
2 63239  97.3910  82.8487 0008288  80.7522 279.4657 15.32217312 73008
INNOSAT 16 (RS92S7)     
1 64878U 25155C   26187.81081331  .00004868  00000+0  19371-3 0  9999
2 64878  97.4576 154.8794 0012341 113.3722 246.8816 15.25675322 83667
GEOSCAN 6 (RS92S6)      
1 64879U 25155D   26187.86319567  .00008497  00000+0  28994-3 0  9993
2 64879  97.4567 156.4967 0009982 105.5514 254.6829 15.30542810 83771
GEOSCAN 1 (RS92S1)      
1 64880U 25155E   26187.85774027  .00009198  00000+0  30751-3 0  9993
2 64880  97.4564 156.6568 0009893 105.4616 254.7719 15.31179303 83786
239ALFEROV (RS61S)      
1 64881U 25155F   26187.86376038  .00011930  00000+0  37013-3 0  9990
2 64881  97.4564 157.2921 0009593 104.7792 255.4514 15.33506307 83827
GEOSCAN 2 (RS92S2)      
1 64890U 25155Q   26187.78267988  .00009773  00000+0  32401-3 0  9992
2 64890  97.4563 156.7415 0009271  95.3896 264.8403 15.31437095 83782
GEOSCAN 5 (RS92S5)      
1 64891U 25155R   26187.84874568  .00011549  00000+0  35504-3 0  9999
2 64891  97.4556 157.4219 0008580 108.6122 251.6053 15.33817158 83832
GEOSCAN 4 (RS92S4)      
1 64892U 25155S   26187.83090852  .00011102  00000+0  33967-3 0  9991
2 64892  97.4560 157.4581 0008562 108.7097 251.5075 15.33978732 83831
