OBJECT_NAME,OBJECT_ID,EPOCH,MEAN_MOTION,ECCENTRICITY,INCLINATION,RA_OF_ASC_NODE,ARG_OF_PERICENTER,MEAN_ANOMALY,EPHEMERIS_TYPE,CLASSIFICATION_TYPE,NORAD_CAT_ID,ELEMENT_SET_NO,REV_AT_EPOCH,BSTAR,MEAN_MOTION_DOT,MEAN_MOTION_DDOT
KUZGTU 1 (RS47S),2023-091AV,2026-07-06T20:23:35.814048,15.30340616,.0010967,97.5050,252.5348,35.2176,324.9787,0,U,57217,999,16738,.32219E-3,.9395E-4,0
SONATE-2,2024-043Q,2026-07-06T09:19:45.443424,15.60279237,.00069887,97.5550,338.9857,133.3094,226.8746,0,U,59112,999,13088,.53834934E-3,.44047E-3,0
MESAT1,2024-125G,2026-07-06T13:16:31.251072,15.65567605,.0010927,97.2267,45.5044,139.4598,220.7478,0,U,60209,999,11259,.52387E-3,.52815E-3,0
OOV-CUBE (TUBSAT-30),2024-128F,2026-07-06T10:01:45.352128,15.02848993,.0042205,61.9939,158.5121,138.0070,222.4270,0,U,60240,999,10900,.16592E-3,.2062E-4,0
COLIBRI-S (RS67S),2024-199M,2026-07-06T20:10:35.265216,15.48590036,.0007899,97.2965,61.8815,192.4642,167.6415,0,U,61746,999,14045,.33401E-3,.1776E-3,0
HORS 3 (RS81S),2024-199U,2026-07-06T20:05:22.092000,15.56445260,.0006009,97.2946,64.0850,183.1196,177.0022,0,U,61753,999,14061,.42446E-3,.29993E-3,0
HORS 4 (RS82S),2024-199V,2026-07-06T19:11:07.098144,15.61711379,.0006012,97.2887,65.3817,173.2282,186.9058,0,U,61754,999,14070,.4952E-3,.42777E-3,0
SIT-2086,2024-199AF,2026-07-06T20:08:27.538368,15.54552182,.0007276,97.2904,64.4954,170.4447,189.6947,0,U,61764,999,13748,.44694E-3,.29474E-3,0
HYPERVIEW 1G (RS66S),2024-199AP,2026-07-06T20:07:18.484032,15.82426801,.0007747,97.2818,68.6326,164.8083,195.3420,0,U,61772,999,13777,.81402E-3,.171406E-2,0
ALTAIR (RS65S),2024-199AW,2026-07-06T20:03:47.223072,15.37402326,.001121,97.3005,57.0591,229.0402,130.9873,0,U,61779,999,14013,.16431E-3,.5953E-4,0
ASRTU-1 (AO-123),2024-199AY,2026-07-06T18:38:08.663424,15.35969798,.0012201,97.2975,56.2714,233.2832,126.7292,0,U,61781,999,13693,.1921E-3,.6661E-4,0
SAMSAT-IONOSPHERE (RS75S),2024-199BB,2026-07-06T20:02:48.215328,15.59506365,.0008168,97.2912,64.2060,188.6990,171.4127,0,U,61784,999,14062,.52384E-3,.41624E-3,0
RTU MIREA 1 (RS51S),2024-199BC,2026-07-06T19:31:15.766752,15.63462569,.0008295,97.2896,65.1229,182.1964,177.9259,0,U,61785,999,13753,.56032E-3,.51921E-3,0
TEVEL2-4,2025-052D,2026-07-06T16:10:58.407168,15.35349022,.0004261,97.3871,84.1040,67.0720,293.0973,0,U,63213,999,7310,.48799E-3,.16695E-3,0
TEVEL2-5,2025-052E,2026-07-06T16:43:43.849056,15.35166336,.0004265,97.3872,84.0695,69.4211,290.7489,0,U,63214,999,7310,.45489E-3,.15464E-3,0
TEVEL2-6,2025-052F,2026-07-06T15:28:15.799584,15.35129767,.0004117,97.3876,84.0017,72.7318,287.4375,0,U,63215,999,7309,.46765E-3,.15882E-3,0
TEVEL2-1,2025-052H,2026-07-06T16:20:01.551264,15.34567986,.0004748,97.3844,83.6383,76.8203,283.3570,0,U,63217,999,7308,.45647E-3,.15226E-3,0
TEVEL2-3,2025-052J,2026-07-06T16:11:14.762688,15.34629270,.0004527,97.3853,83.6568,78.0894,282.0856,0,U,63218,999,7308,.46335E-3,.15487E-3,0
TEVEL2-2,2025-052K,2026-07-06T16:20:17.669184,15.34579587,.0004786,97.3845,83.6413,77.4711,282.7067,0,U,63219,999,7308,.46246E-3,.15433E-3,0
OTP-2,2025-052AB,2026-07-06T15:51:26.538048,15.24261025,.0008292,97.3841,79.8004,93.9891,266.2295,0,U,63235,999,7283,.25147E-3,.6073E-4,0
TEVEL2-9,2025-052AD,2026-07-06T16:24:30.479040,15.32543225,.0008199,97.3912,82.9767,80.0094,280.2072,0,U,63237,999,7301,.44317E-3,.13872E-3,0
TEVEL2-7,2025-052AE,2026-07-06T15:54:54.113184,15.32230916,.0008261,97.3912,82.8636,80.2460,279.9714,0,U,63238,999,7300,.45764E-3,.14189E-3,0
TEVEL2-8,2025-052AF,2026-07-06T16:07:03.328320,15.32217312,.0008288,97.3910,82.8487,80.7522,279.4657,0,U,63239,999,7300,.46474E-3,.14404E-3,0
INNOSAT 16 (RS92S7),2025-155C,2026-07-06T19:27:34.269984,15.25675322,.0012341,97.4576,154.8794,113.3722,246.8816,0,U,64878,999,8366,.19371E-3,.4868E-4,0
GEOSCAN 6 (RS92S6),2025-155D,2026-07-06T20:43:00.105888,15.30542810,.0009982,97.4567,156.4967,105.5514,254.6829,0,U,64879,999,8377,.28994E-3,.8497E-4,0
GEOSCAN 1 (RS92S1),2025-155E,2026-07-06T20:35:08.759328,15.31179303,.0009893,97.4564,156.6568,105.4616,254.7719,0,U,64880,999,8378,.30751E-3,.9198E-4,0
239ALFEROV (RS61S),2025-155F,2026-07-06T20:43:48.896832,15.33506307,.0009593,97.4564,157.2921,104.7792,255.4514,0,U,64881,999,8382,.37013E-3,.1193E-3,0
GEOSCAN 2 (RS92S2),2025-155Q,2026-07-06T18:47:03.541632,15.31437095,.0009271,97.4563,156.7415,95.3896,264.8403,0,U,64890,999,8378,.32401E-3,.9773E-4,0
GEOSCAN 5 (RS92S5),2025-155R,2026-07-06T20:22:11.626752,15.33817158,.000858,97.4556,157.4219,108.6122,251.6053,0,U,64891,999,8383,.35504E-3,.11549E-3,0
GEOSCAN 4 (RS92S4),2025-155S,2026-07-06T19:56:30.496128,15.33978732,.0008562,97.4560,157.4581,108.7097,251.5075,0,U,64892,999,8383,.33967E-3,.11102E-3,0
